{
    "links": {
        "self": "http://www.neowsapp.com/rest/v1/neo/3653045?api_key=iIulBulltgU6a56xZRHN4H3l9WmuAYTsLGpBGhQ2"
    },
    "id": "3653045",
    "neo_reference_id": "3653045",
    "name": "(2013 UQ1)",
    "designation": "2013 UQ1",
    "nasa_jpl_url": "http://ssd.jpl.nasa.gov/sbdb.cgi?sstr=3653045",
    "absolute_magnitude_h": 25.4,
    "estimated_diameter": {
        "kilometers": {
            "estimated_diameter_min": 0.022108281,
            "estimated_diameter_max": 0.0494356193
        },
        "meters": {
            "estimated_diameter_min": 22.1082810359,
            "estimated_diameter_max": 49.435619262
        },
        "miles": {
            "estimated_diameter_min": 0.0137374447,
            "estimated_diameter_max": 0.0307178602
        },
        "feet": {
            "estimated_diameter_min": 72.5337327539,
            "estimated_diameter_max": 162.1903570994
        }
    },
    "is_potentially_hazardous_asteroid": false,
    "close_approach_data": [
        {
            "close_approach_date": "1947-09-24",
            "close_approach_date_full": "1947-Sep-24 17:14",
            "epoch_date_close_approach": -702801960000,
            "relative_velocity": {
                "kilometers_per_second": "14.5173301567",
                "kilometers_per_hour": "52262.3885642759",
                "miles_per_hour": "32473.8158276191"
            },
            "miss_distance": {
                "astronomical": "0.3413821852",
                "lunar": "132.7976700428",
                "kilometers": "51070047.761865524",
                "miles": "31733456.1793072712"
            },
            "orbiting_body": "Earth"
        },
        {
            "close_approach_date": "1951-12-13",
            "close_approach_date_full": "1951-Dec-13 22:24",
            "epoch_date_close_approach": -569640960000,
            "relative_velocity": {
                "kilometers_per_second": "17.0368140967",
                "kilometers_per_hour": "61332.5307482446",
                "miles_per_hour": "38109.6494529856"
            },
            "miss_distance": {
                "astronomical": "0.4561991051",
                "lunar": "177.4614518839",
                "kilometers": "68246414.418866137",
                "miles": "42406355.5110492106"
            },
            "orbiting_body": "Earth"
        },
        {
            "close_approach_date": "2011-09-21",
            "close_approach_date_full": "2011-Sep-21 05:01",
            "epoch_date_close_approach": 1316581260000,
            "relative_velocity": {
                "kilometers_per_second": "16.2737153584",
                "kilometers_per_hour": "58585.3752900665",
                "miles_per_hour": "36402.6738850971"
            },
            "miss_distance": {
                "astronomical": "0.4021031533",
                "lunar": "156.4181266337",
                "kilometers": "60153775.253963471",
                "miles": "37377822.7101430598"
            },
            "orbiting_body": "Earth"
        },
        {
            "close_approach_date": "2013-10-25",
            "close_approach_date_full": "2013-Oct-25 22:56",
            "epoch_date_close_approach": 1382741760000,
            "relative_velocity": {
                "kilometers_per_second": "6.991088283",
                "kilometers_per_hour": "25167.9178187357",
                "miles_per_hour": "15638.3653802027"
            },
            "miss_distance": {
                "astronomical": "0.0459200677",
                "lunar": "17.8629063353",
                "kilometers": "6869544.318175799",
                "miles": "4268536.9046280662"
            },
            "orbiting_body": "Earth"
        },
        {
            "close_approach_date": "2015-12-09",
            "close_approach_date_full": "2015-Dec-09 04:27",
            "epoch_date_close_approach": 1449635220000,
            "relative_velocity": {
                "kilometers_per_second": "14.7388440081",
                "kilometers_per_hour": "53059.8384293245",
                "miles_per_hour": "32969.3201618211"
            },
            "miss_distance": {
                "astronomical": "0.3815006677",
                "lunar": "148.4037597353",
                "kilometers": "57071687.291497799",
                "miles": "35462702.0555916662"
            },
            "orbiting_body": "Earth"
        }
    ],
    "orbital_data": {
        "orbit_id": "7",
        "orbit_determination_date": "2018-02-10 07:05:36",
        "first_observation_date": "2013-10-23",
        "last_observation_date": "2013-10-28",
        "data_arc_in_days": 5,
        "observations_used": 40,
        "orbit_uncertainty": "7",
        "minimum_orbit_intersection": ".0465573",
        "jupiter_tisserand_invariant": "4.236",
        "epoch_osculation": "2459000.5",
        "eccentricity": ".3616346595781355",
        "semi_major_axis": "1.620327317637457",
        "inclination": "9.919603420366935",
        "ascending_node_longitude": "30.09655747746384",
        "orbital_period": "753.3600007370821",
        "perihelion_distance": "1.034360799718482",
        "perihelion_argument": "13.58664717058057",
        "aphelion_distance": "2.206293835556432",
        "perihelion_time": "2458861.488405117570",
        "mean_anomaly": "66.42796818083242",
        "mean_motion": ".4778591903575695",
        "equinox": "J2000",
        "orbit_class": {
            "orbit_class_type": "AMO",
            "orbit_class_description": "Near-Earth asteroid orbits similar to that of 1221 Amor",
            "orbit_class_range": "1.017 AU < q (perihelion) < 1.3 AU"
        }
    },
    "is_sentry_object": false
}